ConfirmationNo,PermitNo,Address,SubmitDate,IssueDate,StartDate,CompleteDate,Name,PermitType,TypeOfWork,LaneBlockage,CleanAddress,MatchAddress,MatchType,parcelId,lat,lng
 31643, 30437,2300 RICHMOND RD,2015/08/27,2015/09/02,2015/08/27,2015/09/17,LFUCG-San Sewers (Water Quality),Street Cut,Add or Change Equipment,Yes,2300 RICHMOND RD,2300 RICHMOND RD,Exact Parcel,4037450,38.01280549,-84.46530547
 31644, 30438,1605 GAYLE DR,2015/08/27,2015/09/02,2015/09/05,2015/09/26,Kentucky American Water,Installation,Maintenance,No,1605 GAYLE DR,1605 GAYLE DR,Exact Parcel,16350300,38.04971819,-84.44550597
 31645, 30439,1503 DECATUR CT,2015/08/27,2015/09/02,2015/09/05,2015/09/26,Kentucky American Water,Installation,Maintenance,No,1503 DECATUR CT,1503 DECATUR CT,Exact Parcel,15253500,38.05286141,-84.44262655
 31646, 30440,1601 RALEIGH RD,2015/08/27,2015/09/02,2015/09/05,2015/09/26,Kentucky American Water,Street Cut,Maintenance,Yes,1601 RALEIGH RD,1601 RALEIGH RD,Exact Parcel,12284750,38.05160569,-84.44362635
 31647, 30441,1600 FT SUMTER DR,2015/08/27,2015/09/02,2015/09/05,2015/09/26,Kentucky American Water,Installation,Maintenance,No,1600 FT SUMTER DR,1600 FT SUMTER DR,Exact Parcel,13764900,38.0502648,-84.44462728
 31648, 30442,1600 ATHENS CT,2015/08/27,2015/09/02,2015/09/05,2015/09/26,Kentucky American Water,Installation,Add or Change Equipment,No,1600 ATHENS CT,1600 ATHENS CT,Exact Parcel,12867650,38.05200929,-84.443336
 31649, 30443,205 E SHORT ST,2015/08/27,2015/09/02,2015/09/10,2015/10/01,Windstream Communications,Installation,New Construction,No,205 E SHORT ST,205 E SHORT ST,Exact Parcel,10040880,38.04523675,-84.49368455
 31650, 30444,981 BEASLEY ST,2015/08/28,2015/09/02,2015/08/27,2015/09/17,Kentucky American Water,Street Cut,Maintenance,Yes,981 BEASLEY ST,981 BEASLEY ST,Exact Parcel,14444901,38.04003929,-84.45116903
 31651, 30445,1701 PELLINORE CT,2015/08/28,2015/09/02,2015/09/06,2015/09/27,Kentucky American Water,Installation,Maintenance,No,1701 PELLINORE CT,1701 PELLINORE CT,Exact Parcel,12905950,38.04913946,-84.4422937
 31652, 30446,1700 PELLINORE CT,2015/08/28,2015/09/02,2015/09/06,2015/09/27,Kentucky American Water,Installation,Maintenance,No,1700 PELLINORE CT,1700 PELLINORE CT,Exact Parcel,14057700,38.04914277,-84.44301561
 31653, 30447,1600 GAYLE DR,2015/08/28,2015/09/02,2015/09/06,2015/09/27,Kentucky American Water,Street Cut,Maintenance,Yes,1600 GAYLE DR,1600 GAYLE DR,Exact Parcel,11184500,38.049521,-84.44610856
 31654, 30448,1668 GAYLE DR,2015/08/28,2015/09/02,2015/09/06,2015/09/27,Kentucky American Water,Installation,Maintenance,No,1668 GAYLE DR,1668 GAYLE DR,Exact Parcel,14735600,38.04875596,-84.44166377
 31656, 30492,468 SILVER MAPLE WAY,2015/08/28,2015/09/14,2015/08/26,2015/09/16,Columbia Gas,Installation,Repair,No,468 SILVER MAPLE WAY,468 SILVER MAPLE WAY,Exact Parcel,14796100,38.04969826,-84.48583303
 31657, 30449,319 N BROADWAY,2015/08/28,2015/09/02,2015/08/26,2015/09/16,Columbia Gas,Installation,Repair,No,319 N BROADWAY,319 N BROADWAY,Exact Parcel,16578100,38.05284777,-84.49527671
 31658, 30450,320-336 GREENBRIAR RD,2015/08/28,2015/09/02,2015/09/10,2015/10/01,Columbia Gas,Installation,Maintenance,No,320 GREENBRIAR RD,320 GREENBRIAR RD,Exact Parcel,23644100,38.00575914,-84.50849726
 31659, 30451,1231-1295 CROSS KEYS RD,2015/08/28,2015/09/02,2015/09/10,2015/10/01,Columbia Gas,Installation,Maintenance,No,1231 CROSS KEYS RD,1231 CROSS KEYS RD,Exact Parcel,26951050,38.04138102,-84.55436717
 31661, 30453,1001 HADDRELL PT,2015/08/28,2015/09/02,2015/09/22,2015/10/13,Columbia Gas,Annual General Permit,New Construction,No,1001 HADDRELL PT,1001 HADDRELL PT,Exact Parcel,38253590,38.03790674,-84.44649405
 31662, 30454,1855 BATTERY ST,2015/08/28,2015/09/02,2015/09/22,2015/10/13,Columbia Gas,Installation,New Construction,No,1855 BATTERY ST,1855 BATTERY ST,Exact Parcel,38256220,38.03659283,-84.44268098
 31663, 30455,634 GOLFVIEW DR,2015/08/28,2015/09/02,2015/09/10,2015/10/01,Columbia Gas,Annual General Permit,New Construction,No,634 GOLFVIEW DR,634 GOLFVIEW DR,Exact Parcel,21650700,38.03865662,-84.52601599
 31664, 30456,1862 RACHELS RUN,2015/08/28,2015/09/02,2015/09/21,2015/10/12,Columbia Gas,Annual General Permit,New Construction,No,1862 RACHELS RUN,1862 RACHELS RUN,Exact Parcel,38256900,38.02213616,-84.39263889
 31666, 30458,416 UHLAN CT,2015/08/28,2015/09/02,2015/09/11,2015/10/02,Windstream Communications,Annual General Permit,Maintenance,No,416 UHLAN CT,416 UHLAN CT,Exact Parcel,16371600,38.0391508,-84.51659434
 31667, 30459,3280 CLAYS MILL RD,2015/08/28,2015/09/02,2015/09/14,2015/10/05,Columbia Gas,Installation,New Construction,No,3280 CLAYS MILL RD,3280 CLAYS MILL RD,Exact Parcel,23129800,37.99892993,-84.54642832
 31668, 30493,2701 MAGNOLIA SPRINGS DR,2015/08/28,2015/09/14,2015/09/14,2015/10/16,Columbia Gas,Installation,New Construction,No,2701 MAGNOLIA SPRINGS DR,2701 MAGNOLIA SPRINGS DR,Exact Parcel,38257110,38.09404036,-84.53344779
 31669, 30494,501 LUCILLE DR,2015/08/28,2015/09/14,2015/09/14,2015/10/16,Columbia Gas,Street Cut,New Construction,Yes,501 LUCILLE DR,501 LUCILLE DR,Exact Parcel,38241580,38.09356387,-84.53943466
 31672, 30460,3221 HUNTING HILLS DR,2015/08/31,2015/09/02,2015/08/28,2015/09/18,Kentucky American Water,Installation,Maintenance,No,3221 HUNTING HILLS DR,3221 HUNTING HILLS DR,Exact Parcel,10028410,37.97359288,-84.45491897
 31673, 30497,125 LONG BRANCH LN,2015/08/31,2015/09/14,2015/08/15,2015/10/15,Kentucky Utilities,Street Cut,New Construction,Yes,125 LONG BRANCH LN,125 LONG BRANCH LN,Exact Parcel,38082670,38.09095429,-84.5629419
 31674, 30498,2612 SUNGALE CT,2015/08/31,2015/09/14,2015/08/28,2015/09/09,Columbia Gas,Annual General Permit,Repair,No,2612 SUNGALE CT,2612 SUNGALE CT,Exact Parcel,20125090,37.99542819,-84.59249721
 31675, 30499,2148 LANSILL RD,2015/08/31,2015/09/14,2015/08/27,2015/09/09,Columbia Gas,Annual General Permit,Repair,No,2148 LANSILL RD,2148 LANSILL RD,Exact Parcel,17138200,38.0277687,-84.55526152
 31676, 30500,3312 LYON DR,2015/08/31,2015/09/14,2015/08/26,2015/09/09,Columbia Gas,Annual General Permit,Repair,No,3312 LYON DR,3312 LYON DR,Exact Parcel,20013570,38.01446611,-84.57176889
 31677, 30501,3453 CLAYS MILL RD,2015/08/31,2015/09/14,2015/08/27,2015/09/17,Columbia Gas,Installation,Repair,No,3453 CLAYS MILL RD,3453 CLAYS MILL RD,Exact Parcel,24009600,37.99166635,-84.55676349
 31678, 30461,220 CONN TER,2015/08/31,2015/09/02,2015/08/28,2015/09/02,Columbia Gas,Annual General Permit,Add or Change Equipment,No,220 CONN TER,220 CONN TER,Exact Parcel,13047300,38.03137807,-84.51330207
 31679, 30502,1117 CLARIDGE DR,2015/08/31,2015/09/14,2015/08/28,2015/09/09,Columbia Gas,Installation,Repair,No,1117 CLARIDGE DR,1117 CLARIDGE DR,Exact Parcel,25394600,38.03700157,-84.5571836
 31680, 30503,2066 OLD NASSAU RD,2015/08/31,2015/09/14,2015/08/28,2015/09/09,Columbia Gas,Installation,Repair,No,2066 OLD NASSAU RD,2066 OLD NASSAU RD,Exact Parcel,12324200,38.03100074,-84.5589569
 31681, 30504,1022 MEADOW LN,2015/08/31,2015/09/14,2015/08/26,2015/09/09,Columbia Gas,Installation,Repair,No,1022 MEADOW LN,1022 MEADOW LN,Exact Parcel,13640400,38.05284232,-84.46367987
 31682, 30505,739 NATIONAL AVE,2015/08/31,2015/09/14,2015/08/27,2015/09/17,Columbia Gas,Street Cut,Repair,Yes,739 NATIONAL AVE,739 NATIONAL AVE,Exact Parcel,12053900,38.03999408,-84.47751086
 31683, 30463,659 LONGVIEW DR,2015/08/31,2015/09/02,2015/09/14,2015/10/05,LFUCG-San Sewers (Water Quality),Street Cut,Repair,Yes,659 LONGVIEW DR,659 LONGVIEW DR,Exact Parcel,25253700,38.02288016,-84.53916504
 31686, 30467,3452 E EDGEBROOK DR,2015/09/01,2015/09/08,2015/08/31,2015/09/21,Kentucky American Water,Installation,Maintenance,No,3452 E EDGEBROOK DR,3452 E EDGEBROOK DR,Exact Parcel,20023960,37.96373056,-84.45607235
 31687, 30468,3428 E EDGEBROOK DR,2015/09/01,2015/09/08,2015/08/31,2015/09/21,Kentucky American Water,Installation,Maintenance,No,3428 E EDGEBROOK DR,3428 E EDGEBROOK DR,Exact Parcel,20023870,37.96495289,-84.45623193
 31689, 30469,1413 JOCASTA DR,2015/09/01,2015/09/08,2015/08/31,2015/09/21,Kentucky American Water,Installation,Maintenance,No,1413 JOCASTA DR,1413 JOCASTA DR,Exact Parcel,10003750,37.97968723,-84.46729475
 31690, 30470,3429 ALPINE CT,2015/09/01,2015/09/08,2015/08/31,2015/09/21,Kentucky American Water,Installation,Maintenance,No,3429 ALPINE CT,3429 ALPINE CT,Exact Parcel,13744642,37.98986878,-84.50788341
 31692, 30471,2047 OLEANDER DR,2015/09/01,2015/09/08,2015/08/31,2015/09/04,Columbia Gas,Installation,Repair,No,2047 OLEANDER DR,2047 OLEANDER DR,Exact Parcel,17116500,38.02824141,-84.54998014
 31693, 30506,3330 SUTHERLAND DR,2015/09/01,2015/09/14,2015/08/31,2015/09/09,Columbia Gas,Annual General Permit,Repair,No,3330 SUTHERLAND DR,3330 SUTHERLAND DR,Exact Parcel,12801500,37.99109308,-84.47910791
 31694, 30472,1309 OLD SOUTH CT,2015/09/01,2015/09/08,2015/08/31,2015/09/04,Columbia Gas,Annual General Permit,Repair,No,1309 OLD SOUTH CT,1309 OLD SOUTH CT,Exact Parcel,23996890,37.99152608,-84.56937158
 31695, 30473,1818 COURTLAND DR,2015/09/01,2015/09/08,2015/08/31,2015/09/04,Columbia Gas,Installation,Repair,No,1818 COURTLAND DR,1818 COURTLAND DR,Exact Parcel,12794100,38.05512382,-84.4443078
 31696, 30464,204 CONN TER,2015/09/01,2015/09/02,2015/08/31,2015/09/21,Columbia Gas,Installation,Repair,No,204 CONN TER,204 CONN TER,Exact Parcel,13126700,38.03122126,-84.51262483
 31698, 30465,511 SMITH ST,2015/09/01,2015/09/02,2015/09/14,2015/10/05,Columbia Gas,Annual General Permit,New Construction,No,511 SMITH ST,511 SMITH ST,Exact Parcel,13407852,38.0577191,-84.49367218
 31703, 30475,1720 FORTUNE CT,2015/09/02,2015/09/08,2015/09/01,2015/09/08,Columbia Gas,Installation,Repair,No,1720 FORTUNE CT,1720 FORTUNE CT,Exact Parcel,20035480,38.03974494,-84.44916285
 31704, 30508,329 JESSELIN DR,2015/09/02,2015/09/14,2015/09/01,2015/09/14,Columbia Gas,Installation,Repair,No,329 JESSELIN DR,329 JESSELIN DR,Exact Parcel,23054900,38.00807599,-84.50598517
 31705, 30476,731 DAKOTA ST,2015/09/02,2015/09/08,2015/09/01,2015/09/22,Columbia Gas,Installation,Repair,No,731 DAKOTA ST,731 DAKOTA ST,Exact Parcel,14174800,38.05800126,-84.48554563
 31706, 30477,630 EUCLID AVE,2015/09/02,2015/09/08,2015/09/21,2015/10/21,Kentucky Utilities,Annual General Permit,Maintenance,Yes,630 EUCLID AVE,630 EUCLID AVE,Exact Parcel,10125100,38.03164566,-84.49336676
 31707, 30478,1891 PARKERS MILL RD,2015/09/02,2015/09/08,2015/09/11,2015/10/02,Kentucky American Water,Installation,New Construction,No,1891 PARKERS MILL RD,1891 PARKERS MILL RD,Exact Parcel,4021050,38.03819312,-84.56295514
 31710, 30509,3321 LYON DR,2015/09/03,2015/09/14,2015/09/01,2015/09/14,Columbia Gas,Installation,Repair,No,3321 LYON DR,3321 LYON DR,Exact Parcel,20013740,38.01473474,-84.57066181
 31711, 30481,236 SAVOY RD,2015/09/03,2015/09/08,2015/09/02,2015/09/08,Columbia Gas,Installation,Repair,No,236 SAVOY RD,236 SAVOY RD,Exact Parcel,10824800,38.05431899,-84.53694407
 31712, 30482,247 SAVOY RD,2015/09/03,2015/09/08,2015/09/02,2015/09/23,Columbia Gas,Installation,Repair,No,247 SAVOY RD,247 SAVOY RD,Exact Parcel,16552100,38.05497274,-84.5371934
 31713, 30513,241 VANDERBILT DR,2015/09/03,2015/09/17,2015/09/01,2015/09/22,Columbia Gas,Installation,Repair,No,241 VANDERBILT DR,241 VANDERBILT DR,Exact Parcel,25772375,37.98127879,-84.52079432
 31714, 30483,2817 DAN PATCH DR,2015/09/03,2015/09/08,2015/09/16,2015/10/07,Columbia Gas,Annual General Permit,Maintenance,No,2817 DAN PATCH DR,2817 DAN PATCH DR,Exact Parcel,24910600,38.1370812,-84.52312747
 31715, 30484,3550 PIMLICO PKWY,2015/09/03,2015/09/08,2015/09/16,2015/10/07,Columbia Gas,Annual General Permit,Maintenance,No,3550 PIMLICO PKWY,3550 PIMLICO PKWY,Exact Parcel,12526500,37.9817426,-84.47130026
 31717, 30510,212 E TIVERTON WAY,2015/09/03,2015/09/14,2015/09/03,2015/09/14,Kentucky American Water,Installation,Repair,No,212 E TIVERTON WAY,212 E TIVERTON WAY,Exact Parcel,25292375,37.97778825,-84.52110576
 31718, 30543,3257-3510 TRANQUILITY PT,2015/09/03,2015/09/18,2015/09/25,2015/12/25,Kentucky Utilities,Installation,New Construction,No,3257 TRANQUILITY PT,3257 TRANQUILITY PT,Exact Parcel,38256490,38.02406093,-84.39338408
 31719, 30544,1801-1869 RACHELS RUN,2015/09/03,2015/09/18,2015/09/25,2015/12/25,Kentucky Utilities,Installation,New Construction,No,1801 RACHELS RUN,1801 RACHELS RUN,Exact Parcel,38248900,38.01974666,-84.39243771
 31721, 30545,1702-1762 AMETHYST WAY,2015/09/03,2015/09/18,2015/09/25,2015/12/25,Kentucky Utilities,Installation,New Construction,No,1702 AMETHYST WAY,1702 AMETHYST WAY,Exact Parcel,38248940,38.01897311,-84.3926414
 31722, 30486,218 E SEVENTH ST,2015/09/03,2015/09/08,2015/09/16,2015/10/07,Columbia Gas,Street Cut,Maintenance,Yes,218 E SEVENTH ST,218 E SEVENTH ST,Exact Parcel,11981220,38.05288891,-84.48183981
 31723, 30546,3454-3490 FERGUS PARK,2015/09/03,2015/09/18,2015/09/25,2015/12/25,Kentucky Utilities,Installation,New Construction,No,3454 FERGUS PARK,3454 FERGUS PARK,Exact Parcel,38248760,38.0221894,-84.39199466
 31724, 30487,772 LONGWOOD RD,2015/09/03,2015/09/08,2015/09/16,2015/10/07,Columbia Gas,Installation,New Construction,No,772 LONGWOOD RD,772 LONGWOOD RD,Exact Parcel,26166705,37.99341701,-84.56779747
 31725, 30547,"3488, 3495 JACOB CT",2015/09/03,2015/09/18,2015/09/25,2015/12/25,Kentucky Utilities,Installation,New Construction,No,3488 JACOB CT,3488 JACOB CT,Exact Parcel,38256370,38.02017976,-84.3910843
 31726, 30548,1096-1117 KAVENAUGH LN,2015/09/03,2015/09/18,2015/09/25,2015/12/25,Kentucky Utilities,Installation,New Construction,No,1096 KAVENAUGH LN,1096 KAVENAUGH LN,Exact Parcel,38252610,38.00575806,-84.4086403
 31727, 30549,1192-1211 AUTUMN RIDGE DR,2015/09/03,2015/09/18,2015/09/25,2015/12/25,Kentucky Utilities,Installation,New Construction,No,1192 AUTUMN RIDGE DR,1192 AUTUMN RIDGE DR,Exact Parcel,38252690,38.00673859,-84.40760866
 31728, 30550,"3330, 3345 LAWSON LN",2015/09/03,2015/09/18,2015/09/25,2015/12/25,Kentucky Utilities,Installation,New Construction,No,3330 LAWSON LN,3330 LAWSON LN,Exact Parcel,38252460,38.00684057,-84.40924107
 31729, 30551,"700, 717 ROSE HURST WAY",2015/09/03,2015/09/18,2015/09/25,2015/12/25,Kentucky Utilities,Installation,New Construction,No,700 ROSE HURST WAY,700 ROSE HURST WAY,Exact Parcel,19342450,37.96009753,-84.51211967
 31730, 30552,1233 PASSAGE MOUND WAY,2015/09/03,2015/09/18,2015/09/25,2015/12/25,Kentucky Utilities,Installation,New Construction,No,1233 PASSAGE MOUND WAY,1233 PASSAGE MOUND WAY,Exact Parcel,38177250,38.00525314,-84.39566171
 31731, 30488,633 CHESTNUT ST,2015/09/03,2015/09/08,2015/09/17,2015/09/19,Windstream Communications,Annual General Permit,Maintenance,No,633 CHESTNUT ST,633 CHESTNUT ST,Exact Parcel,13008600,38.05034527,-84.48050164
 31734, 30489,707 SHROPSHIRE AVE,2015/09/03,2015/09/08,2015/09/17,2015/10/08,Crown Castle,Installation,New Construction,Yes,707 SHROPSHIRE AVE,707 SHROPSHIRE AVE,Exact Parcel,12052400,38.04991158,-84.47744273
 31736, 30511,3868 TROUT CT,2015/09/04,2015/09/14,2015/09/03,2015/09/24,Kentucky American Water,Installation,Repair,No,3868 TROUT CT,3868 TROUT CT,Exact Parcel,20279284,37.96596753,-84.47902989
 31739, 30514,432  WOODLAND AVE,2015/09/08,2015/09/17,2015/09/22,2015/10/13,Windstream Communications,Annual General Permit,Add or Change Equipment,No,432 WOODLAND AVE,432 WOODLAND AVE,Exact Parcel,12634850,38.03345432,-84.49700975
 31740, 30602,332 ZANDALE DR,2015/09/08,2015/09/24,2015/09/04,2015/09/25,Columbia Gas,Installation,Repair,No,332 ZANDALE DR,332 ZANDALE DR,Exact Parcel,25545100,38.00241284,-84.50511626
 31741, 30592,1840-1842 DUNKIRK DR,2015/09/08,2015/09/23,2015/09/04,2015/09/25,Columbia Gas,Installation,Repair,No,1840 DUNKIRK DR,1840 DUNKIRK DR,Exact Parcel,16011800,38.05300564,-84.53257797
 31743, 30516,905 MARBLEHEAD DR,2015/09/08,2015/09/17,2015/09/21,2015/10/12,Columbia Gas,Annual General Permit,New Construction,No,905 MARBLEHEAD DR,905 MARBLEHEAD DR,Exact Parcel,19970190,38.02445691,-84.43446735
 31744, 30517,903 EDGEWATER DR,2015/09/08,2015/09/17,2015/09/21,2015/10/12,Columbia Gas,Installation,New Construction,No,903 EDGEWATER DR,903 EDGEWATER DR,Exact Parcel,11858182,37.99755905,-84.46495736
 31749, 30521,2020 REGENCY RD,2015/09/09,2015/09/17,2015/09/23,2015/10/14,Windstream Communications,Annual General Permit,Add or Change Equipment,No,2020 REGENCY RD,2020 REGENCY RD,Exact Parcel,13443075,38.0127422,-84.52212723
 31751, 30523,2046  RAMBLER RD,2015/09/09,2015/09/17,2015/09/23,2015/10/14,Windstream Communications,Annual General Permit,Add or Change Equipment,No,2046 RAMBLER RD,2046 RAMBLER RD,Exact Parcel,11354600,38.01081316,-84.52169132
 31752, 30524,2042 RAINBOW RD,2015/09/09,2015/09/17,2015/09/23,2015/10/14,Windstream Communications,Annual General Permit,Add or Change Equipment,No,2042 RAINBOW RD,2042 RAINBOW RD,Exact Parcel,25061200,38.01052084,-84.52036045
 31753, 30525,2037 REBEL RD,2015/09/09,2015/09/17,2015/09/23,2015/10/14,Windstream Communications,Annual General Permit,Add or Change Equipment,No,2037 REBEL RD,2037 REBEL RD,Exact Parcel,10519900,38.01039195,-84.51980257
 31760, 30527,961 MIDNIGHT PASS,2015/09/10,2015/09/17,2015/09/24,2015/10/15,Columbia Gas,Annual General Permit,New Construction,No,961 MIDNIGHT PASS,961 MIDNIGHT PASS,Exact Parcel,38219730,38.01683801,-84.55733535
 31762, 30593,221 LONDONDERRY DR,2015/09/10,2015/09/23,2015/09/09,2015/09/21,Columbia Gas,Installation,Repair,No,221 LONDONDERRY DR,221 LONDONDERRY DR,Exact Parcel,11894600,38.0549229,-84.53852778
 31763, 30594,2391 TUCSON DR,2015/09/10,2015/09/23,2015/09/09,2015/09/21,Columbia Gas,Installation,Repair,No,2391 TUCSON DR,2391 TUCSON DR,Exact Parcel,25210825,38.01676967,-84.54266741
 31765, 30595,529 CLAYMONT DR,2015/09/10,2015/09/23,2015/09/09,2015/09/21,Columbia Gas,Installation,Repair,No,529 CLAYMONT DR,529 CLAYMONT DR,Exact Parcel,12883700,38.0123132,-84.53575143
 31766, 30596,919 AURORA AVE,2015/09/10,2015/09/23,2015/09/09,2015/09/30,Columbia Gas,Street Cut,Repair,Yes,919 AURORA AVE,919 AURORA AVE,Exact Parcel,12381625,38.03694837,-84.47691217
 31767, 30529,635 OHIO ST,2015/09/10,2015/09/17,2015/09/19,2015/10/10,Kentucky American Water,Street Cut,New Construction,Yes,635 OHIO ST,635 OHIO ST,Exact Parcel,16315700,38.05113301,-84.48119154
 31768, 30530,184 SIMPSON AVE,2015/09/10,2015/09/17,2015/09/19,2015/10/10,Kentucky American Water,Street Cut,New Construction,Yes,184 SIMPSON AVE,184 SIMPSON AVE,Exact Parcel,38251430,38.03452547,-84.51596549
 31769, 30555,1505 ATLANTA CT,2015/09/10,2015/09/21,2015/09/10,2015/10/01,Kentucky American Water,Installation,Maintenance,No,1505 ATLANTA CT,1505 ATLANTA CT,Exact Parcel,16225650,38.05329281,-84.44061569
 31772, 30531,611-778 WINCHESTER RD,2015/09/11,2015/09/17,2015/09/25,2015/10/16,Crown Castle,Annual General Permit,Add or Change Equipment,Yes,611 WINCHESTER RD,611 WINCHESTER RD,Exact Parcel,16172010,38.04240661,-84.48097806
 31773, 30532,110-577 E THIRD ST,2015/09/11,2015/09/17,2015/09/25,2015/10/16,Crown Castle,Installation,Add or Change Equipment,Yes,110 E THIRD ST,110 E THIRD ST,Exact Parcel,13969800,38.04907207,-84.49250901
 31775, 30534,128-169 DEWEESE ST,2015/09/11,2015/09/17,2015/09/25,2015/10/16,Crown Castle,Installation,Add or Change Equipment,Yes,128 DEWEESE ST,128 DEWEESE ST,Exact Parcel,14174700,38.04389594,-84.49218375
 31776, 30597,151 ALABAMA AVE,2015/09/11,2015/09/23,2015/09/10,2015/09/21,Columbia Gas,Annual General Permit,Maintenance,No,151 ALABAMA AVE,151 ALABAMA AVE,Exact Parcel,16745500,38.05402383,-84.48342757
 31777, 30535,240-312 CORRAL ST,2015/09/11,2015/09/17,2015/09/25,2015/10/16,Crown Castle,Installation,Add or Change Equipment,Yes,240 CORRAL ST,240 CORRAL ST,Exact Parcel,38101420,38.04550809,-84.49203448
 31778, 30536,180-225 SPRUCE ST,2015/09/11,2015/09/17,2015/09/25,2015/10/16,Crown Castle,Installation,Add or Change Equipment,No,180 SPRUCE ST,180 SPRUCE ST,Exact Parcel,10847605,38.04550129,-84.49128227
 31779, 30537,311-657 CHESTNUT ST,2015/09/11,2015/09/17,2015/09/25,2015/10/16,Crown Castle,Annual General Permit,Add or Change Equipment,Yes,311 CHESTNUT ST,311 CHESTNUT ST,Exact Parcel,13222700,38.04544333,-84.48737289
 31780, 30538,316-446 E SEVENTH ST,2015/09/11,2015/09/17,2015/09/25,2015/10/16,Crown Castle,Annual General Permit,Add or Change Equipment,Yes,316 E SEVENTH ST,316 E SEVENTH ST,Exact Parcel,10434200,38.05177956,-84.48048298
 31781, 30598,716 SHROPSHIRE AVE,2015/09/11,2015/09/23,2015/09/10,2015/10/01,Columbia Gas,Installation,Maintenance,No,716 SHROPSHIRE AVE,716 SHROPSHIRE AVE,Exact Parcel,14497200,38.04977485,-84.47668777
 31782, 30603,937-997 MIDNIGHT PASS,2015/09/11,2015/09/24,2015/09/25,2015/12/25,Kentucky Utilities,Installation,New Construction,No,937 MIDNIGHT PASS,937 MIDNIGHT PASS,Exact Parcel,38219750,38.01632931,-84.55693563
 31786, 30539,3211-3261 NICHOLASVILLE RD,2015/09/11,2015/09/17,2015/09/21,2015/10/12,Windstream Communications,Annual General Permit,Maintenance,Yes,3211 NICHOLASVILLE RD,3211 NICHOLASVILLE RD,Exact Parcel,10031490,37.99310146,-84.52376977
 31787, 30556,3201 MAMMOTH DR,2015/09/14,2015/09/21,2015/09/11,2015/10/02,Kentucky American Water,Installation,Maintenance,No,3201 MAMMOTH DR,3201 MAMMOTH DR,Exact Parcel,11887713,37.9880408,-84.46311613
 31788, 30557,358 PATCHEN DR,2015/09/14,2015/09/21,2015/09/12,2015/10/03,Kentucky American Water,Installation,Maintenance,No,358 PATCHEN DR,358 PATCHEN DR,Exact Parcel,26805601,38.00339921,-84.45663842
 31789, 30558,1209 N LIMESTONE,2015/09/14,2015/09/21,2015/09/10,2015/10/01,Kentucky American Water,Street Cut,Maintenance,Yes,1209 N LIMESTONE,1209 N LIMESTONE,Exact Parcel,16044800,38.0615883,-84.47601003
 31792, 30559,2121 HUME RD,2015/09/14,2015/09/21,2015/09/11,2015/09/18,Columbia Gas,Installation,Repair,No,2121 HUME RD,2121 HUME RD,Exact Parcel,21391400,38.04813844,-84.41837325
 31793, 30599,1141 CLARIDGE DR,2015/09/14,2015/09/23,2015/09/11,2015/09/21,Columbia Gas,Annual General Permit,Repair,No,1141 CLARIDGE DR,1141 CLARIDGE DR,Exact Parcel,21234900,38.03747715,-84.55857707
 31794, 30600,1805 DARIEN DR,2015/09/14,2015/09/23,2015/09/11,2015/10/02,Columbia Gas,Installation,Repair,No,1805 DARIEN DR,1805 DARIEN DR,Exact Parcel,21137300,38.03749137,-84.55531648
 31800, 30560,301-361 S BROADWAY,2015/09/14,2015/09/21,2015/09/28,2015/10/19,Crown Castle,Installation,Add or Change Equipment,Yes,301 S BROADWAY,301 S BROADWAY,Exact Parcel,10008600,38.04787948,-84.50211427
 31801, 30561,316-601 W HIGH ST,2015/09/14,2015/09/21,2015/09/28,2015/10/19,Crown Castle,Installation,Add or Change Equipment,Yes,316 W HIGH ST,316 W HIGH ST,Exact Parcel,10174200,38.04710842,-84.50166171
 31802, 30562,377 ROSE ST,2015/09/14,2015/09/21,2015/09/21,2015/10/12,Crown Castle,Installation,Add or Change Equipment,Yes,377 ROSE ST,377 ROSE ST,Exact Parcel,11223765,38.03825945,-84.49958233
 31803, 30563,111-201 WOODLAND AVE,2015/09/14,2015/09/21,2015/09/21,2015/10/12,Crown Castle,Annual General Permit,Add or Change Equipment,Yes,111 WOODLAND AVE,111 WOODLAND AVE,Exact Parcel,CONDO,38.03937122,-84.48997078
 31804, 30564,473-833 E MAIN ST,2015/09/14,2015/09/21,2015/09/21,2015/10/19,Crown Castle,Annual General Permit,Add or Change Equipment,Yes,473 E MAIN ST,473 E MAIN ST,Exact Parcel,17144700,38.04022227,-84.48910531
 31805, 30565,107 WALTON AVE,2015/09/14,2015/09/21,2015/09/21,2015/10/12,Crown Castle,Annual General Permit,Add or Change Equipment,Yes,107 WALTON AVE,107 WALTON AVE,Exact Parcel,11120400,38.03697817,-84.48570892
 31806, 30571,107 N HANOVER AVE,2015/09/14,2015/09/21,2015/09/21,2015/10/19,Crown Castle,Annual General Permit,Add or Change Equipment,Yes,107 N HANOVER AVE,107 N HANOVER AVE,Exact Parcel,10000400,38.03470087,-84.48314368
 31807, 30572,2836 MT MCKINLEY WAY,2015/09/14,2015/09/21,2015/09/14,2015/10/05,Kentucky American Water,Installation,Maintenance,No,2836 MT MCKINLEY WAY,2836 MT MCKINLEY WAY,Exact Parcel,11887738,37.98267962,-84.46271395
 31808, 30573,1200 N LIMESTONE,2015/09/14,2015/09/21,2015/09/14,2015/10/05,Kentucky American Water,Street Cut,Maintenance,Yes,1200 N LIMESTONE,1200 N LIMESTONE,Exact Parcel,10444400,38.06101701,-84.47577297
 31809, 30512,205 GLENDOVER RD,2015/09/15,2015/09/15,2015/09/21,2015/10/05,Contractor,Installation,Maintenance,No,205 GLENDOVER RD,205 GLENDOVER RD,Exact Parcel,23585700,38.00997156,-84.51004468
 31810, 30574,2101 HUME RD,2015/09/15,2015/09/21,2015/09/10,2015/09/18,Columbia Gas,Installation,Repair,No,2101 HUME RD,2101 HUME RD,Exact Parcel,26041200,38.04867071,-84.41860045
 31811, 30601,1820 TRAVELLER RD,2015/09/15,2015/09/23,2015/09/10,2015/09/21,Columbia Gas,Annual General Permit,Repair,No,1820 TRAVELLER RD,1820 TRAVELLER RD,Exact Parcel,22324000,38.03633369,-84.55381624
 31813, 30575,428 RIDGEWAY RD,2015/09/15,2015/09/21,2015/09/10,2015/10/01,Columbia Gas,Installation,Repair,No,428 RIDGEWAY RD,428 RIDGEWAY RD,Exact Parcel,14562500,38.02169503,-84.48301295
 31814, 30542,3451 PIMLICO PKWY,2015/09/15,2015/09/17,2015/09/28,2015/10/23,Columbia Gas,Installation,Add or Change Equipment,Yes,3451 PIMLICO PKWY,3451 PIMLICO PKWY,Exact Parcel,14986578,37.98481813,-84.47501512
 31815, 30576,102 W HIGH ST,2015/09/15,2015/09/21,2015/09/29,2015/10/20,Crown Castle,Installation,New Construction,Yes,102 W HIGH ST,102 W HIGH ST,Exact Parcel,17171650,38.04513569,-84.49906349
 31816, 30591,355 S BROADWAY,2015/09/15,2015/09/23,2015/09/29,2015/10/20,Crown Castle,Installation,New Construction,Yes,355 S BROADWAY,355 S BROADWAY,Exact Parcel,10039920,38.04690929,-84.50336562
 31817, 30577,2221 HUME RD,2015/09/15,2015/09/21,2015/09/14,2015/09/18,Columbia Gas,Installation,Repair,No,2221 HUME RD,2221 HUME RD,Exact Parcel,25541900,38.04573702,-84.41743566
 31824, 30609,1803 WILLIAMSBURG RD,2015/09/16,2015/09/28,2015/09/15,2015/09/25,Columbia Gas,Installation,Repair,No,1803 WILLIAMSBURG RD,1803 WILLIAMSBURG RD,Exact Parcel,22382600,38.03878794,-84.55942909
 31825, 30610,1653 LINSTEAD DR,2015/09/16,2015/09/28,2015/09/15,2015/09/25,Columbia Gas,Installation,Repair,No,1653 LINSTEAD DR,1653 LINSTEAD DR,Exact Parcel,26893700,38.03831774,-84.55669967
 31830, 30589,250-360 W LOUDON AVE,2015/09/16,2015/09/22,2015/09/30,2015/10/21,Crown Castle,Installation,New Construction,Yes,250 W LOUDON AVE,250 W LOUDON AVE,Exact Parcel,14784100,38.06269968,-84.48933035
 31831, 30582,4087 ELORA LN,2015/09/16,2015/09/21,2015/09/16,2015/10/07,Delta Gas,Annual General Permit,New Construction,No,4087 ELORA LN,4087 ELORA LN,Exact Parcel,38058860,37.96591898,-84.52616743
 31833, 30611,1292 CROSS KEYS RD,2015/09/17,2015/09/28,2015/09/16,2015/10/07,Columbia Gas,Annual General Permit,Repair,No,1292 CROSS KEYS RD,1292 CROSS KEYS RD,Exact Parcel,26867750,38.04255058,-84.55660678
 31834, 30612,1243 CROSS KEYS RD,2015/09/17,2015/09/28,2015/09/16,2015/09/25,Columbia Gas,Annual General Permit,Repair,No,1243 CROSS KEYS RD,1243 CROSS KEYS RD,Exact Parcel,27210000,38.04190852,-84.55473826
 31838, 30613,1833 CANTRILL DR,2015/09/18,2015/09/28,2015/09/27,2015/10/18,Kentucky American Water,Installation,Maintenance,No,1833 CANTRILL DR,1833 CANTRILL DR,Exact Parcel,15543700,38.04616166,-84.44508127
 31839, 30614,1719 SARASOTA CT,2015/09/18,2015/09/28,2015/09/27,2015/10/18,Kentucky American Water,Installation,Maintenance,No,1719 SARASOTA CT,1719 SARASOTA CT,Exact Parcel,15879400,38.05059858,-84.43656043
 31840, 30615,1706 CHICKASAW CT,2015/09/18,2015/09/28,2015/09/27,2015/10/18,Kentucky American Water,Installation,Maintenance,No,1706 CHICKASAW CT,1706 CHICKASAW CT,Exact Parcel,12025200,38.05011554,-84.43803923
 31841, 30616,1719 CHARLESTON CT,2015/09/18,2015/09/28,2015/09/27,2015/10/18,Kentucky American Water,Installation,Maintenance,No,1719 CHARLESTON CT,1719 CHARLESTON CT,Exact Parcel,11507900,38.05109461,-84.43586918
 31842, 30617,1717 BILOXI CT,2015/09/18,2015/09/28,2015/09/27,2015/10/18,Kentucky American Water,Installation,Maintenance,No,1717 BILOXI CT,1717 BILOXI CT,Exact Parcel,10589800,38.05159589,-84.43519529
 31855, 30618,109 DELMONT DR,2015/09/21,2015/09/28,2015/09/14,2015/10/05,Columbia Gas,Street Cut,Repair,Yes,109 DELMONT DR,109 DELMONT DR,Exact Parcel,20793400,38.05028193,-84.52883832
 31863, 30619,1101 ALEXANDRIA DR,2015/09/22,2015/09/28,2015/09/21,2015/10/12,Kentucky American Water,Installation,Maintenance,No,1101 ALEXANDRIA DR,1101 ALEXANDRIA DR,Exact Parcel,22651400,38.05594243,-84.55790208
 31867, 30606,650 NEWTOWN PIKE,2015/09/22,2015/09/25,2015/10/07,2015/10/28,Crown Castle,Annual General Permit,Add or Change Equipment,Yes,650 NEWTOWN PIKE,650 NEWTOWN PIKE,Exact Parcel,4024290,38.0646272,-84.49828156
 31868, 30607,360 W LOUDON AVE,2015/09/22,2015/09/25,2015/10/07,2015/10/28,Crown Castle,Annual General Permit,Add or Change Equipment,Yes,360 W LOUDON AVE,360 W LOUDON AVE,Exact Parcel,10016100,38.06212655,-84.49418999
 31869, 30620,772-777 N BROADWAY,2015/09/22,2015/09/28,2015/10/07,2015/10/28,Crown Castle,Annual General Permit,Add or Change Equipment,Yes,772 N BROADWAY,772 N BROADWAY,Exact Parcel,13292600,38.05901151,-84.4849044
 31870, 30621,700-776 N LIMESTONE,2015/09/22,2015/09/28,2015/10/07,2015/10/28,Crown Castle,Annual General Permit,Add or Change Equipment,Yes,700 N LIMESTONE,700 N LIMESTONE,Exact Parcel,15441550,38.0553502,-84.48402363
 31871, 30622,119 E LOUDON AVE,2015/09/22,2015/09/28,2015/10/07,2015/10/28,Crown Castle,Annual General Permit,Add or Change Equipment,Yes,119 E LOUDON AVE,119 E LOUDON AVE,Exact Parcel,4023170,38.05683981,-84.4803163
 31872, 30623,811-1117 BRYAN AVE,2015/09/22,2015/09/28,2015/10/07,2015/10/28,Crown Castle,Annual General Permit,Add or Change Equipment,Yes,811 BRYAN AVE,811 BRYAN AVE,Exact Parcel,4037720,38.05660708,-84.47978268
 31873, 30624,122-235 ARCEME AVE,2015/09/22,2015/09/28,2015/10/07,2015/10/28,Crown Castle,Annual General Permit,Add or Change Equipment,Yes,122 ARCEME AVE,122 ARCEME AVE,Exact Parcel,4037730,38.05898427,-84.47787015
 31874, 30625,118-244 CARLISLE AVE,2015/09/22,2015/09/28,2015/10/07,2015/10/28,Crown Castle,Annual General Permit,Add or Change Equipment,Yes,118 CARLISLE AVE,118 CARLISLE AVE,Exact Parcel,11179200,38.06058442,-84.47597122
 31875, 30626,1021 N LIMESTONE,2015/09/22,2015/09/28,2015/10/07,2015/10/28,Crown Castle,Annual General Permit,Add or Change Equipment,Yes,1021 N LIMESTONE,1021 N LIMESTONE,Exact Parcel,10963200,38.05997495,-84.47825324
 31877, 30628,1190-1206 N LIMESTONE,2015/09/22,2015/09/28,2015/10/07,2015/10/28,Crown Castle,Annual General Permit,Add or Change Equipment,Yes,1190 N LIMESTONE,1190 N LIMESTONE,Exact Parcel,11077600,38.06080998,-84.47608062
 31879, 30583,1721 SHENANDOAH DR,2015/09/22,2015/09/22,2015/09/28,2015/10/09,Contractor,Installation,Maintenance,No,1721 SHENANDOAH DR,1721 SHENANDOAH DR,Exact Parcel,21570500,38.04067243,-84.54574277
 31898, 30634,125 HAMILTON PARK,2015/09/23,2015/09/28,2015/09/22,2015/09/25,Columbia Gas,Annual General Permit,Repair,No,125 HAMILTON PARK,125 HAMILTON PARK,Exact Parcel,22372750,38.05028012,-84.5373374
 31901, 30635,2484 PASCOLI PL,2015/09/23,2015/09/28,2015/10/05,2015/10/26,Columbia Gas,Annual General Permit,New Construction,No,2484 PASCOLI PL,2484 PASCOLI PL,Exact Parcel,38157300,38.03287161,-84.42709168
 31906, 30637,2425 WOODHILL DR,2015/09/24,2015/09/28,2015/10/08,2015/10/29,Crown Castle,Installation,New Construction,Yes,2425 WOODHILL DR,2425 WOODHILL DR,Exact Parcel,13579200,38.01684172,-84.45167046
 31660, 30452,146-154 GRAND BLVD,2015/08/28,2015/09/02,2015/09/10,2015/10/01,Columbia Gas,Street Cut,Maintenance,Yes,146 GRAND BLVD,146 GRAND BLVD,Exact Block Address Range,,38.04035455502666,-84.49341796947111
 31665, 30457,0 JESSELIN DR,2015/08/28,2015/09/02,2015/09/23,2015/10/14,Columbia Gas,Installation,New Construction,No,JESSELIN DR,JESSELIN DR,Approximate Block Address Range,,38.010685270050764,-84.514871487969828
 31670, 30495,0 SANDERSVILLE RD,2015/08/28,2015/09/14,2015/09/14,2015/10/16,Columbia Gas,Street Cut,New Construction,Yes,SANDERSVILLE RD,SANDERSVILLE RD,Approximate Block Address Range,,38.087566985728344,-84.503502571444088
 31671, 30496,0 SANDERSVILLE RD,2015/08/28,2015/09/14,2015/09/14,2015/10/16,Columbia Gas,Street Cut,New Construction,Yes,SANDERSVILLE RD,SANDERSVILLE RD,Approximate Block Address Range,,38.087566985728344,-84.503502571444088
 31684, 30462,0 COLD HARBOR DR,2015/08/31,2015/09/02,2015/09/14,2015/10/05,Windstream Communications,Annual General Permit,Maintenance,No,COLD HARBOR DR,COLD HARBOR DR,Approximate Block Address Range,,38.037461599613174,-84.533280002413321
 31685, 30466,703 SHROPSHIRE AVE,2015/09/01,2015/09/03,2015/09/15,2015/10/06,Crown Castle,Installation,New Construction,Yes,703 SHROPSHIRE AVE,703 SHROPSHIRE AVE,Approximate Block Address Range,,38.050100026305799,-84.476830146966975
 31688, 30491,352  MANITOBA LN,2015/09/01,2015/09/10,2015/09/10,2015/10/01,Delta Gas,Street Cut,New Construction,No,352 MANITOBA LN,352 MANITOBA LN,Exact Block Address Range,,37.966604815473872,-84.52293516475504
 31691, 30584,230 SPRUCE ST,2015/09/01,2015/09/22,2015/09/22,2015/10/13,Crown Castle,Installation,New Construction,Yes,230 SPRUCE ST,230 SPRUCE ST,Approximate Block Address Range,,38.04672043154801,-84.489943089706927
 31697, 30474,343 S MARTIN LUTHER KING BLVD,2015/09/01,2015/09/08,2015/08/31,2015/09/21,Columbia Gas,Street Cut,Repair,Yes,343 S MARTIN LUTHER KING BLVD,343 S MARTIN LUTHER KING BLVD,Exact Block Address Range,,38.04061791373293,-84.501813803230689
 31699, 30585,336 E SEVENTH ST,2015/09/01,2015/09/22,2015/09/22,2015/10/13,Crown Castle,Annual General Permit,New Construction,Yes,336 E SEVENTH ST,336 E SEVENTH ST,Approximate Block Address Range,,38.051975901473121,-84.480348687084572
 31700, 30586,111 E THIRD ST,2015/09/01,2015/09/22,2015/09/22,2015/10/13,Crown Castle,Installation,New Construction,Yes,111 E THIRD ST,111 E THIRD ST,Exact Block Address Range,,38.049075087481619,-84.492050353991573
 31701, 30587,325  E FOURTH ST,2015/09/01,2015/09/22,2015/09/22,2015/10/13,Crown Castle,Annual General Permit,New Construction,Yes,325 E FOURTH ST,325 E FOURTH ST,Approximate Block Address Range,,38.046769104499013,-84.485909283571957
 31702, 30507,351 MANITOBA LN,2015/09/02,2015/09/14,2015/09/02,2015/10/02,Delta Gas,Annual General Permit,New Construction,No,351 MANITOBA LN,351 MANITOBA LN,Exact Block Address Range,,37.966604815473872,-84.52293516475504
 31708, 30479,900 BRYAN AVE,2015/09/02,2015/09/08,2015/09/16,2015/10/07,Windstream Communications,Annual General Permit,Maintenance,No,900 BRYAN AVE,900 BRYAN AVE,Approximate Block Address Range,,38.05621571182806,-84.477092287748931
 31709, 30480,"590, 690 NEWTOWN PIKE",2015/09/02,2015/09/08,2015/09/16,2015/10/07,Windstream Communications,Installation,Maintenance,No,590 NEWTOWN PIKE,590 NEWTOWN PIKE,Approximate Block Address Range,,38.063742721993542,-84.499801097626815
 31716, 30485,0 CITATION BLVD,2015/09/03,2015/09/08,2015/09/20,2015/12/20,Kentucky Utilities,Installation,New Construction,Yes,CITATION BLVD,CITATION BLVD,Approximate Block Address Range,,38.08679317362607,-84.492408774519745
 31720, 30588,0 E SEVENTH ST,2015/09/03,2015/09/08,2015/09/16,2015/10/07,Columbia Gas,Installation,Maintenance,No,E SEVENTH ST,E SEVENTH ST,Approximate Block Address Range,,38.055164456958416,-84.484003830935279
 31737, 30490,0 PERSHING RD,2015/09/04,2015/09/08,2015/09/23,2015/10/14,Columbia Gas,Installation,New Construction,No,PERSHING RD,PERSHING RD,Approximate Block Address Range,,38.025806150605163,-84.533068667773776
 31742, 30515,0 BETHEL RD,2015/09/08,2015/09/17,2015/09/30,2015/11/30,Kentucky Utilities,Installation,New Construction,Yes,BETHEL RD,BETHEL RD,Approximate Block Address Range,,38.124222318590427,-84.58298671305414
 31745, 30518,0 REMINGTON WAY,2015/09/08,2015/09/17,2015/09/21,2015/10/16,Columbia Gas,Installation,New Construction,No,REMINGTON WAY,REMINGTON WAY,Approximate Block Address Range,,38.093832471157491,-84.508709152705634
 31746, 30519,0 CITATION BLVD,2015/09/08,2015/09/17,2015/09/21,2015/10/16,Columbia Gas,Installation,New Construction,No,CITATION BLVD,CITATION BLVD,Approximate Block Address Range,,38.08679317362607,-84.492408774519745
 31747, 30520,0 GEORGETOWN RD,2015/09/08,2015/09/17,2015/09/21,2015/10/16,Columbia Gas,Street Cut,New Construction,Yes,GEORGETOWN RD,GEORGETOWN RD,Approximate Block Address Range,,38.075892560784588,-84.50643559385378
 31750, 30522,0 REGAL LN,2015/09/09,2015/09/17,2015/09/23,2015/10/14,Windstream Communications,Annual General Permit,Add or Change Equipment,No,REGAL LN,Address Not Found,Unable to Match,,-84.497024,38.046371
 31758, 30554,0 E SHORT ST,2015/09/09,2015/09/21,2015/09/17,2015/10/08,Crown Castle,Installation,New Construction,Yes,E SHORT ST,E SHORT ST,Approximate Block Address Range,,38.046189912216413,-84.495394316788619
 31759, 30526,0 WINCHESTER RD,2015/09/10,2015/09/17,2015/09/28,2015/10/19,Columbia Gas,Street Cut,New Construction,Yes,WINCHESTER RD,WINCHESTER RD,Approximate Block Address Range,,38.042373775487505,-84.481573121696471
 31761, 30528,1057 MARCO LN,2015/09/10,2015/09/17,2015/09/24,2015/10/15,Columbia Gas,Annual General Permit,New Construction,No,1057 MARCO LN,1057 MARCO LN,Exact Block Address Range,,38.004884122050058,-84.408811708597199
 31774, 30533,0 E SHORT ST,2015/09/11,2015/09/17,2015/09/25,2015/10/16,Crown Castle,Installation,Add or Change Equipment,Yes,E SHORT ST,E SHORT ST,Approximate Block Address Range,,38.046189912216413,-84.495394316788619
 31783, 30604,"3085, 3093 LAKECREST CIR",2015/09/11,2015/09/24,2015/09/25,2015/12/25,Kentucky Utilities,Installation,New Construction,No,3085 LAKECREST CIR,3085 LAKECREST CIR,Exact Block Address Range,,38.017698652972641,-84.555783449668567
 31784, 30590,0 RIVER PARK DR,2015/09/11,2015/09/17,2015/10/12,2015/11/12,Kentucky American Water,Installation,New Construction,No,RIVER PARK DR,RIVER PARK DR,Approximate Block Address Range,,37.979441772869514,-84.477219370660748
 31790, 30566,102 WALTON AVE,2015/09/14,2015/09/21,2015/09/28,2015/10/19,Crown Castle,Installation,New Construction,Yes,102 WALTON AVE,102 WALTON AVE,Approximate Block Address Range,,38.036766307298961,-84.485660536958022
 31791, 30567,375 ROSE ST,2015/09/14,2015/09/21,2015/09/28,2015/10/19,Crown Castle,Annual General Permit,New Construction,Yes,375 ROSE ST,375 ROSE ST,Exact Block Address Range,,38.038067243705491,-84.499459954230389
 31795, 30540,131 COLFAX ST,2015/09/14,2015/09/17,2015/09/25,2015/10/16,Columbia Gas,Street Cut,Maintenance,Yes,131 COLFAX ST,131 COLFAX ST,Exact Block Address Range,,38.039253596954211,-84.50792787424939
 31796, 30568,104 N HANOVER AVE,2015/09/14,2015/09/21,2015/09/28,2015/10/19,Crown Castle,Annual General Permit,New Construction,Yes,104 N HANOVER AVE,104 N HANOVER AVE,Approximate Block Address Range,,38.035811987403818,-84.481009294767759
 31797, 30569,509  E HIGH ST,2015/09/14,2015/09/21,2015/09/28,2015/10/19,Crown Castle,Installation,New Construction,Yes,509 E HIGH ST,509 E HIGH ST,Exact Block Address Range,,38.036231116193051,-84.492590703048833
 31798, 30541,477 E MAIN ST,2015/09/14,2015/09/17,2015/09/28,2015/10/19,Crown Castle,Installation,New Construction,Yes,477 E MAIN ST,477 E MAIN ST,Exact Block Address Range,,38.039884187986225,-84.489687939756806
 31799, 30570,279 E HIGH ST,2015/09/14,2015/09/21,2015/09/28,2015/10/19,Crown Castle,Annual General Permit,New Construction,Yes,279 E HIGH ST,279 E HIGH ST,Exact Block Address Range,,38.041826415283595,-84.49506448599945
 31812, 30605,1615 ELIZABETH ST,2015/09/15,2015/09/24,2015/09/10,2015/10/01,Columbia Gas,Installation,Repair,No,1615 ELIZABETH ST,1615 ELIZABETH ST,Exact Block Address Range,,38.023177404865059,-84.515810037090475
 31819, 30608,1966 CAMBRIDGE DR,2015/09/15,2015/09/28,2015/09/14,2015/09/25,Columbia Gas,Installation,Repair,No,1966 CAMBRIDGE DR,1966 CAMBRIDGE DR,Exact Block Address Range,,38.052530777231645,-84.548259472081895
 31826, 30578,101 N BROADWAY PARK,2015/09/16,2015/09/21,2015/09/30,2015/10/21,Crown Castle,Installation,New Construction,Yes,101 N BROADWAY PARK,101 N BROADWAY PARK,Approximate Block Address Range,,38.060834451718627,-84.479652142015667
 31827, 30579,1204 N LIMESTONE,2015/09/16,2015/09/21,2015/09/30,2015/10/21,Crown Castle,Installation,New Construction,Yes,1204 N LIMESTONE,1204 N LIMESTONE,Approximate Block Address Range,,38.061010921764286,-84.476248514809939
 31828, 30580,698 N LIMESTONE,2015/09/16,2015/09/21,2015/09/30,2015/10/21,Crown Castle,Annual General Permit,New Construction,Yes,698 N LIMESTONE,698 N LIMESTONE,Approximate Block Address Range,,38.055503403309224,-84.484083033377061
 31829, 30581,121 E LOUDON AVE,2015/09/16,2015/09/21,2015/09/30,2015/10/21,Crown Castle,Annual General Permit,New Construction,Yes,121 E LOUDON AVE,121 E LOUDON AVE,Exact Block Address Range,,38.056896726662423,-84.481090135586754
 31876, 30627,0 N BROADWAY PARK,2015/09/22,2015/09/28,2015/10/07,2015/10/28,Crown Castle,Annual General Permit,Add or Change Equipment,Yes,N BROADWAY PARK,N BROADWAY PARK,Approximate Block Address Range,,38.060834451718627,-84.479652142015667
 31890, 30629,0 SPRULL WALK,2015/09/22,2015/09/28,2015/10/05,2015/10/30,Columbia Gas,Installation,New Construction,No,SPRULL WALK,SPRULL WALK,Approximate Block Address Range,,,
 31891, 30630,0 LAWTON FLT,2015/09/22,2015/09/28,2015/10/05,2015/10/30,Columbia Gas,Installation,New Construction,No,LAWTON FLT,LAWTON FLT,Approximate Block Address Range,,,
 31892, 30631,0 HADDRELL CV,2015/09/22,2015/09/28,2015/10/05,2015/10/30,Columbia Gas,Street Cut,New Construction,Yes,HADDRELL CV,HADDRELL CV,Approximate Block Address Range,,38.037173211206678,-84.444295349990199
 31893, 30632,0 GRIMBALL TRCE,2015/09/22,2015/09/28,2015/10/05,2015/10/30,Columbia Gas,Street Cut,New Construction,No,GRIMBALL TRCE,GRIMBALL TRCE,Approximate Block Address Range,,,
 31897, 30633,0 VILEY RD,2015/09/23,2015/09/28,2015/09/22,2015/10/13,Kentucky American Water,Street Cut,Maintenance,Yes,VILEY RD,VILEY RD,Approximate Block Address Range,,38.052952555032739,-84.559093380121624
 31903, 30636,416 ROSE ST,2015/09/23,2015/09/28,2015/10/07,2015/10/28,Crown Castle,Installation,New Construction,Yes,416 ROSE ST,416 ROSE ST,Approximate Block Address Range,,38.037414544325209,-84.500383741086281
 31905, 30638,0 RICHMOND SRD,2015/09/24,2015/09/28,2015/10/08,2015/10/29,Crown Castle,Installation,New Construction,Yes,RICHMOND SRD,RICHMOND SRD,Approximate Block Address Range,,38.003984075391863,-84.449796185198807
 31907, 30639,0 LIBERTY RD,2015/09/24,2015/09/28,2015/10/08,2015/10/29,Crown Castle,Installation,New Construction,Yes,LIBERTY RD,LIBERTY RD,Approximate Block Address Range,,38.041226681960978,-84.469230867416542
